GLOBALSTAR M075         
1 37192U 10054E   23324.23320803 -.00000096  00000+0  45055-4 0  9995
2 37192  51.9922 132.1477 0001106  96.7122  74.0674 12.62267646603393
GLOBALSTAR M073         
1 37193U 10054F   23324.51478775 -.00000097  00000+0  35807-4 0  9994
2 37193  52.0076  44.6671 0000597 123.0215 249.8085 12.62269280605261
GLOBALSTAR M083         
1 37739U 11033A   23324.38916910 -.00000088  00000+0  87390-4 0  9995
2 37739  51.9879 354.5675 0000507  72.8034  29.9182 12.62262985574269
GLOBALSTAR M088         
1 37740U 11033B   23324.53622781 -.00000095  00000+0  49407-4 0  9999
2 37740  51.9739 260.0950 0001002  61.7726 109.1250 12.62267593570116
GLOBALSTAR M091         
1 37741U 11033C   23324.23233545 -.00000094  00000+0  54241-4 0  9994
2 37741  51.9993 223.5487 0001240  69.2536  99.2442 12.62268691570576
GLOBALSTAR M085         
1 37742U 11033D   23324.29889339 -.00000103  00000+0  61786-5 0  9993
2 37742  51.9845 174.8934 0001289  81.1163  90.3805 12.62265388571093
GLOBALSTAR M081         
1 37743U 11033E   23324.52825269 -.00000090  00000+0  77195-4 0  9997
2 37743  51.9936 176.6274 0001377  88.4773 285.7969 12.62267092571272
GLOBALSTAR M089         
1 37744U 11033F   23324.40936889 -.00000098  00000+0  34502-4 0  9999
2 37744  51.9904 131.3227 0000978 114.7219 259.1841 12.62269717572101
